[{"OBJECT_NAME":"STARLINK-36991","OBJECT_ID":"2026-039AB","EPOCH":"2026-03-26T16:31:34.646880","MEAN_MOTION":15.50630216,"ECCENTRICITY":0.0002515,"INCLINATION":43.0002,"RA_OF_ASC_NODE":313.7642,"ARG_OF_PERICENTER":276.7279,"MEAN_ANOMALY":83.3294,"EPHEMERIS_TYPE":0,"CLASSIFICATION_TYPE":"U","NORAD_CAT_ID":68011,"ELEMENT_SET_NO":999,"REV_AT_EPOCH":429,"BSTAR":0.0012925,"MEAN_MOTION_DOT":0.00076372,"MEAN_MOTION_DDOT":0},{"OBJECT_NAME":"STARLINK-36967","OBJECT_ID":"2026-039AD","EPOCH":"2026-03-26T16:23:52.782720","MEAN_MOTION":15.50612647,"ECCENTRICITY":7.09e-5,"INCLINATION":42.9991,"RA_OF_ASC_NODE":313.7222,"ARG_OF_PERICENTER":255.9495,"MEAN_ANOMALY":104.1286,"EPHEMERIS_TYPE":0,"CLASSIFICATION_TYPE":"U","NORAD_CAT_ID":68013,"ELEMENT_SET_NO":999,"REV_AT_EPOCH":429,"BSTAR":0.0011523,"MEAN_MOTION_DOT":0.00067926,"MEAN_MOTION_DDOT":0},{"OBJECT_NAME":"STARLINK-36985","OBJECT_ID":"2026-039AE","EPOCH":"2026-03-26T20:00:03.000384","MEAN_MOTION":15.36113142,"ECCENTRICITY":0.0001244,"INCLINATION":42.9993,"RA_OF_ASC_NODE":311.892,"ARG_OF_PERICENTER":279.2853,"MEAN_ANOMALY":225.5815,"EPHEMERIS_TYPE":0,"CLASSIFICATION_TYPE":"U","NORAD_CAT_ID":68014,"ELEMENT_SET_NO":999,"REV_AT_EPOCH":563,"BSTAR":-0.058367,"MEAN_MOTION_DOT":-0.01880042,"MEAN_MOTION_DDOT":0},{"OBJECT_NAME":"STARLINK-36335","OBJECT_ID":"2026-040A","EPOCH":"2026-03-26T19:59:21.547392","MEAN_MOTION":15.755413,"ECCENTRICITY":0.0003695,"INCLINATION":97.2853,"RA_OF_ASC_NODE":35.1184,"ARG_OF_PERICENTER":136.0282,"MEAN_ANOMALY":224.1278,"EPHEMERIS_TYPE":0,"CLASSIFICATION_TYPE":"U","NORAD_CAT_ID":68015,"ELEMENT_SET_NO":999,"REV_AT_EPOCH":405,"BSTAR":0.0033683,"MEAN_MOTION_DOT":0.00543787,"MEAN_MOTION_DDOT":0},{"OBJECT_NAME":"STARLINK-36923","OBJECT_ID":"2026-040B","EPOCH":"2026-03-26T19:57:50.335776","MEAN_MOTION":15.75329596,"ECCENTRICITY":0.0003258,"INCLINATION":97.2853,"RA_OF_ASC_NODE":35.1197,"ARG_OF_PERICENTER":100.8085,"MEAN_ANOMALY":259.3547,"EPHEMERIS_TYPE":0,"CLASSIFICATION_TYPE":"U","NORAD_CAT_ID":68016,"ELEMENT_SET_NO":999,"REV_AT_EPOCH":405,"BSTAR":0.0016042,"MEAN_MOTION_DOT":0.00247745,"MEAN_MOTION_DDOT":0},{"OBJECT_NAME":"STARLINK-36568","OBJECT_ID":"2026-040C","EPOCH":"2026-03-26T09:16:28.860960","MEAN_MOTION":15.75167444,"ECCENTRICITY":0.0003018,"INCLINATION":97.2883,"RA_OF_ASC_NODE":34.6539,"ARG_OF_PERICENTER":78.2413,"MEAN_ANOMALY":281.9191,"EPHEMERIS_TYPE":0,"CLASSIFICATION_TYPE":"U","NORAD_CAT_ID":68017,"ELEMENT_SET_NO":999,"REV_AT_EPOCH":398,"BSTAR":0.0016646,"MEAN_MOTION_DOT":0.00255507,"MEAN_MOTION_DDOT":0},{"OBJECT_NAME":"STARLINK-36930","OBJECT_ID":"2026-040D","EPOCH":"2026-03-26T19:58:51.142368","MEAN_MOTION":15.75264206,"ECCENTRICITY":0.0001762,"INCLINATION":97.2862,"RA_OF_ASC_NODE":35.1177,"ARG_OF_PERICENTER":104.9379,"MEAN_ANOMALY":255.2082,"EPHEMERIS_TYPE":0,"CLASSIFICATION_TYPE":"U","NORAD_CAT_ID":68018,"ELEMENT_SET_NO":999,"REV_AT_EPOCH":405,"BSTAR":0.0011149,"MEAN_MOTION_DOT":0.00170071,"MEAN_MOTION_DDOT":0},{"OBJECT_NAME":"STARLINK-36921","OBJECT_ID":"2026-040E","EPOCH":"2026-03-26T09:12:55.207584","MEAN_MOTION":15.75179585,"ECCENTRICITY":0.0002483,"INCLINATION":97.2861,"RA_OF_ASC_NODE":34.6612,"ARG_OF_PERICENTER":89.6448,"MEAN_ANOMALY":270.5101,"EPHEMERIS_TYPE":0,"CLASSIFICATION_TYPE":"U","NORAD_CAT_ID":68019,"ELEMENT_SET_NO":999,"REV_AT_EPOCH":398,"BSTAR":0.0015319,"MEAN_MOTION_DOT":0.00234662,"MEAN_MOTION_DDOT":0},{"OBJECT_NAME":"STARLINK-36928","OBJECT_ID":"2026-040F","EPOCH":"2026-03-26T09:14:26.795040","MEAN_MOTION":15.7517942,"ECCENTRICITY":0.0002778,"INCLINATION":97.2855,"RA_OF_ASC_NODE":34.6581,"ARG_OF_PERICENTER":91.5096,"MEAN_ANOMALY":268.6488,"EPHEMERIS_TYPE":0,"CLASSIFICATION_TYPE":"U","NORAD_CAT_ID":68020,"ELEMENT_SET_NO":999,"REV_AT_EPOCH":398,"BSTAR":0.0017697,"MEAN_MOTION_DOT":0.00272315,"MEAN_MOTION_DDOT":0},{"OBJECT_NAME":"STARLINK-36858","OBJECT_ID":"2026-040G","EPOCH":"2026-03-24T12:55:13.776960","MEAN_MOTION":15.75331784,"ECCENTRICITY":0.00016946,"INCLINATION":97.2853,"RA_OF_ASC_NODE":32.8877,"ARG_OF_PERICENTER":78.8231,"MEAN_ANOMALY":281.3225,"EPHEMERIS_TYPE":0,"CLASSIFICATION_TYPE":"U","NORAD_CAT_ID":68021,"ELEMENT_SET_NO":999,"REV_AT_EPOCH":370,"BSTAR":0.0017848498,"MEAN_MOTION_DOT":0.00276588,"MEAN_MOTION_DDOT":0},{"OBJECT_NAME":"STARLINK-36916","OBJECT_ID":"2026-040H","EPOCH":"2026-03-26T19:51:44.439552","MEAN_MOTION":15.75375377,"ECCENTRICITY":0.0003062,"INCLINATION":97.2852,"RA_OF_ASC_NODE":35.1261,"ARG_OF_PERICENTER":118.2602,"MEAN_ANOMALY":241.8973,"EPHEMERIS_TYPE":0,"CLASSIFICATION_TYPE":"U","NORAD_CAT_ID":68022,"ELEMENT_SET_NO":999,"REV_AT_EPOCH":405,"BSTAR":0.0025217,"MEAN_MOTION_DOT":0.00397207,"MEAN_MOTION_DDOT":0},{"OBJECT_NAME":"STARLINK-36871","OBJECT_ID":"2026-040J","EPOCH":"2026-03-26T09:10:53.360256","MEAN_MOTION":15.75183547,"ECCENTRICITY":0.0002797,"INCLINATION":97.2872,"RA_OF_ASC_NODE":34.6586,"ARG_OF_PERICENTER":92.2067,"MEAN_ANOMALY":267.9519,"EPHEMERIS_TYPE":0,"CLASSIFICATION_TYPE":"U","NORAD_CAT_ID":68023,"ELEMENT_SET_NO":999,"REV_AT_EPOCH":398,"BSTAR":0.0017676,"MEAN_MOTION_DOT":0.0027204,"MEAN_MOTION_DDOT":0},{"OBJECT_NAME":"STARLINK-36891","OBJECT_ID":"2026-040K","EPOCH":"2026-03-26T13:44:18.608640","MEAN_MOTION":15.75227538,"ECCENTRICITY":0.0002001,"INCLINATION":97.2865,"RA_OF_ASC_NODE":34.8608,"ARG_OF_PERICENTER":70.3128,"MEAN_ANOMALY":289.8353,"EPHEMERIS_TYPE":0,"CLASSIFICATION_TYPE":"U","NORAD_CAT_ID":68024,"ELEMENT_SET_NO":999,"REV_AT_EPOCH":401,"BSTAR":0.0013299,"MEAN_MOTION_DOT":0.00203367,"MEAN_MOTION_DDOT":0},{"OBJECT_NAME":"STARLINK-36378","OBJECT_ID":"2026-040L","EPOCH":"2026-03-26T19:48:10.762848","MEAN_MOTION":15.752771,"ECCENTRICITY":0.0001709,"INCLINATION":97.2851,"RA_OF_ASC_NODE":35.1324,"ARG_OF_PERICENTER":118.0918,"MEAN_ANOMALY":242.0521,"EPHEMERIS_TYPE":0,"CLASSIFICATION_TYPE":"U","NORAD_CAT_ID":68025,"ELEMENT_SET_NO":999,"REV_AT_EPOCH":405,"BSTAR":0.0012353,"MEAN_MOTION_DOT":0.00188969,"MEAN_MOTION_DDOT":0},{"OBJECT_NAME":"STARLINK-36940","OBJECT_ID":"2026-040N","EPOCH":"2026-03-26T08:55:38.683200","MEAN_MOTION":15.75174321,"ECCENTRICITY":0.0003526,"INCLINATION":97.2855,"RA_OF_ASC_NODE":34.6819,"ARG_OF_PERICENTER":99.462,"MEAN_ANOMALY":260.7044,"EPHEMERIS_TYPE":0,"CLASSIFICATION_TYPE":"U","NORAD_CAT_ID":68027,"ELEMENT_SET_NO":999,"REV_AT_EPOCH":398,"BSTAR":0.0015624,"MEAN_MOTION_DOT":0.00239446,"MEAN_MOTION_DDOT":0}]
