STARLINK-36991          
1 68011U 26039AB  26085.68859545  .00076372  00000+0  12925-2 0  9992
2 68011  43.0002 313.7642 0002515 276.7279  83.3294 15.50630216  4299
STARLINK-36967          
1 68013U 26039AD  26085.68324980  .00067926  00000+0  11523-2 0  9992
2 68013  42.9991 313.7222 0000709 255.9495 104.1286 15.50612647  4293
STARLINK-36985          
1 68014U 26039AE  26085.83336806 -.01880042  00000+0 -58367-1 0  9991
2 68014  42.9993 311.8920 0001244 279.2853 225.5815 15.36113142  5637
STARLINK-36335          
1 68015U 26040A   26085.83288828  .00543787  00000+0  33683-2 0  9998
2 68015  97.2853  35.1184 0003695 136.0282 224.1278 15.75541300  4059
STARLINK-36923          
1 68016U 26040B   26085.83183259  .00247745  00000+0  16042-2 0  9996
2 68016  97.2853  35.1197 0003258 100.8085 259.3547 15.75329596  4059
STARLINK-36568          
1 68017U 26040C   26085.38644515  .00255507  00000+0  16646-2 0  9999
2 68017  97.2883  34.6539 0003018  78.2413 281.9191 15.75167444  3983
STARLINK-36930          
1 68018U 26040D   26085.83253637  .00170071  00000+0  11149-2 0  9996
2 68018  97.2862  35.1177 0001762 104.9379 255.2082 15.75264206  4053
STARLINK-36921          
1 68019U 26040E   26085.38397231  .00234662  00000+0  15319-2 0  9996
2 68019  97.2861  34.6612 0002483  89.6448 270.5101 15.75179585  3986
STARLINK-36928          
1 68020U 26040F   26085.38503235  .00272315  00000+0  17697-2 0  9999
2 68020  97.2855  34.6581 0002778  91.5096 268.6488 15.75179420  3988
STARLINK-36858          
1 68021U 26040G   26083.53835390  .00276588  00000+0  17848-2 0  9999
2 68021  97.2853  32.8877 0001694  78.8231 281.3225 15.75331784  3704
STARLINK-36916          
1 68022U 26040H   26085.82759768  .00397207  00000+0  25217-2 0  9999
2 68022  97.2852  35.1261 0003062 118.2602 241.8973 15.75375377  4055
STARLINK-36871          
1 68023U 26040J   26085.38256204  .00272040  00000+0  17676-2 0  9995
2 68023  97.2872  34.6586 0002797  92.2067 267.9519 15.75183547  3984
STARLINK-36891          
1 68024U 26040K   26085.57243760  .00203367  00000+0  13299-2 0  9993
2 68024  97.2865  34.8608 0002001  70.3128 289.8353 15.75227538  4010
STARLINK-36378          
1 68025U 26040L   26085.82512457  .00188969  00000+0  12353-2 0  9994
2 68025  97.2851  35.1324 0001709 118.0918 242.0521 15.75277100  4058
STARLINK-36940          
1 68027U 26040N   26085.37197550  .00239446  00000+0  15624-2 0  9990
2 68027  97.2855  34.6819 0003526  99.4620 260.7044 15.75174321  3987
